ORBCOMM FM33            
1 25983U 99065D   25229.28135889  .00000664  00000+0  25329-3 0  9999
2 25983  45.0288  68.4723 0008431  14.2647 345.8439 14.40100593344875
ORBCOMM FM36            
1 25984U 99065E   25229.53430805  .00001044  00000+0  38691-3 0  9993
2 25984  45.0386 160.1446 0003848 280.9586  79.0830 14.38240997343250
ORBCOMM FM35            
1 25985U 99065F   25229.55818512  .00000885  00000+0  34210-3 0  9996
2 25985  45.0389 165.5540 0005547 337.4779  22.5825 14.37200816343610
ORBCOMM FM38            
1 33060U 08031A   25229.45565401  .00001604  00000+0  22954-3 0  9999
2 33060  48.4418  23.2218 0005259 298.4821  61.5565 14.81518039923839
ORBCOMM FM41            
1 33061U 08031B   25229.41196602  .00001474  00000+0  21515-3 0  9996
2 33061  48.4452  31.4212 0004560 282.8966  94.2102 14.81094048923316
ORBCOMM FM29            
1 33062U 08031C   25229.53123725  .00001547  00000+0  22386-3 0  9994
2 33062  48.4402  38.5869 0006204 284.4618 116.3068 14.81203540923245
ORBCOMM FM39            
1 33063U 08031D   25229.54734600  .00001241  00000+0  19127-3 0  9996
2 33063  48.4409  63.4603 0007132 258.5206 101.4908 14.79732899922880
